$$SOE
2460728.500000000, A.D. 2025-Feb-22 00:00:00.0000, 3.067498652573372E+08, 2.798448042088980E+07, 2.132330903631319E+07,
2460735.500000000, A.D. 2025-Mar-01 00:00:00.0000, 3.052825122168007E+08, 3.924347341945674E+07, 1.657869245994567E+07,
2460742.500000000, A.D. 2025-Mar-08 00:00:00.0000, 3.033091844992418E+08, 5.043739810828962E+07, 1.180660307978963E+07,
2460749.500000000, A.D. 2025-Mar-15 00:00:00.0000, 3.008305064172798E+08, 6.154726428414822E+07, 7.014847321757611E+06,
2460756.500000000, A.D. 2025-Mar-22 00:00:00.0000, 2.978478707589599E+08, 7.255400640774862E+07, 2.211345609209146E+06,
2460763.500000000, A.D. 2025-Mar-29 00:00:00.0000, 2.943634540625169E+08, 8.343850434202084E+07, -2.595875177759547E+06,
2460770.500000000, A.D. 2025-Apr-05 00:00:00.0000, 2.903802334317982E+08, 9.418160633892575E+07, -7.398689900649283E+06,
2460777.500000000, A.D. 2025-Apr-12 00:00:00.0000, 2.859020028603598E+08, 1.047641544461952E+08, -1.218888387067347E+07,
2460784.500000000, A.D. 2025-Apr-19 00:00:00.0000, 2.809333887639955E+08, 1.151670115140951E+08, -1.695816215803931E+07,
2460791.500000000, A.D. 2025-Apr-26 00:00:00.0000, 2.754798648690969E+08, 1.253710896542769E+08, -2.169815957963849E+07,
2460798.500000000, A.D. 2025-May-03 00:00:00.0000, 2.695477664346597E+08, 1.353573802183314E+08, -2.640045140827843E+07,
2460805.500000000, A.D. 2025-May-10 00:00:00.0000, 2.631443036893525E+08, 1.451069853455889E+08, -3.105656483758835E+07,
2460812.500000000, A.D. 2025-May-17 00:00:00.0000, 2.562775743624079E+08, 1.546011510716529E+08, -3.565799123901110E+07,
2460819.500000000, A.D. 2025-May-24 00:00:00.0000, 2.489565753151239E+08, 1.638213019664631E+08, -4.019619925835358E+07,
2460826.500000000, A.D. 2025-May-31 00:00:00.0000, 2.411912135158376E+08, 1.727490776219796E+08, -4.466264878936076E+07,
2460833.500000000, A.D. 2025-Jun-07 00:00:00.0000, 2.329923157646007E+08, 1.813663721813264E+08, -4.904880570737067E+07,
2460840.500000000, A.D. 2025-Jun-14 00:00:00.0000, 2.243716345902958E+08, 1.896553762246372E+08, -5.334615720964326E+07,
2460847.500000000, A.D. 2025-Jun-21 00:00:00.0000, 2.153418513383402E+08, 1.975986177208606E+08, -5.754622815111408E+07,
2460854.500000000, A.D. 2025-Jun-28 00:00:00.0000, 2.059165793737518E+08, 2.051790037544610E+08, -6.164059852365883E+07,
2460861.500000000, A.D. 2025-Jul-05 00:00:00.0000, 1.961103656562320E+08, 2.123798651050382E+08, -6.562092175611872E+07,
2460868.500000000, A.D. 2025-Jul-12 00:00:00.0000, 1.859386892673829E+08, 2.191850027835908E+08, -6.947894377669987E+07,
2460875.500000000, A.D. 2025-Jul-19 00:00:00.0000, 1.754179568523903E+08, 2.255787358389735E+08, -7.320652288026957E+07,
2460882.500000000, A.D. 2025-Jul-26 00:00:00.0000, 1.645654949594924E+08, 2.315459502431767E+08, -7.679565039432555E+07,
2460889.500000000, A.D. 2025-Aug-02 00:00:00.0000, 1.533995391192137E+08, 2.370721487176277E+08, -8.023847210901430E+07,
2460896.500000000, A.D. 2025-Aug-09 00:00:00.0000, 1.419392194704262E+08, 2.421435012992340E+08, -8.352731042591161E+07,
2460903.500000000, A.D. 2025-Aug-16 00:00:00.0000, 1.302045428038457E+08, 2.467468963654245E+08, -8.665468717631668E+07,
2460910.500000000, A.D. 2025-Aug-23 00:00:00.0000, 1.182163711197016E+08, 2.508699918852069E+08, -8.961334705565229E+07,
2460917.500000000, A.D. 2025-Aug-30 00:00:00.0000, 1.059963968437520E+08, 2.545012673338286E+08, -9.239628154825473E+07,
2460924.500000000, A.D. 2025-Sep-06 00:00:00.0000, 9.356711311237007E+07, 2.576300769684798E+08, -9.499675301482822E+07,
2460931.500000000, A.D. 2025-Sep-13 00:00:00.0000, 8.095177729171515E+07, 2.602467016621540E+08, -9.740831886091632E+07,
2460938.500000000, A.D. 2025-Sep-20 00:00:00.0000, 6.817437087281395E+07, 2.623423973399082E+08, -9.962485610336851E+07,
2460945.500000000, A.D. 2025-Sep-27 00:00:00.0000, 5.525955673024580E+07, 2.639094427873047E+08, -1.016405860619002E+08,
2460952.500000000, A.D. 2025-Oct-04 00:00:00.0000, 4.223263168903656E+07, 2.649411869839768E+08, -1.034500988033021E+08,
2460959.500000000, A.D. 2025-Oct-11 00:00:00.0000, 2.911947401731387E+07, 2.654320946153933E+08, -1.050483772195200E+08,
2460966.500000000, A.D. 2025-Oct-18 00:00:00.0000, 1.594648615928126E+07, 2.653777890745051E+08, -1.064308206152510E+08,
2460973.500000000, A.D. 2025-Oct-25 00:00:00.0000, 2.740532922872640E+06, 2.647750925437042E+08, -1.075932676353721E+08,
2460980.500000000, A.D. 2025-Nov-01 00:00:00.0000, -1.047112471603502E+07, 2.636220627497845E+08, -1.085320183467825E+08,
2460987.500000000, A.D. 2025-Nov-08 00:00:00.0000, -2.366089998530231E+07, 2.619180259401290E+08, -1.092438552885579E+08,
2460994.500000000, A.D. 2025-Nov-15 00:00:00.0000, -3.680095449106990E+07, 2.596636056086836E+08, -1.097260633147537E+08,
2461001.500000000, A.D. 2025-Nov-22 00:00:00.0000, -4.986327551522283E+07, 2.568607467924937E+08, -1.099764480552316E+08,
2461008.500000000, A.D. 2025-Nov-29 00:00:00.0000, -6.281975626001812E+07, 2.535127366966666E+08, -1.099933527000127E+08,
2461015.500000000, A.D. 2025-Dec-06 00:00:00.0000, -7.564228092959702E+07, 2.496242211625375E+08, -1.097756727296251E+08,
2461022.500000000, A.D. 2025-Dec-13 00:00:00.0000, -8.830281377150361E+07, 2.452012132795036E+08, -1.093228687207688E+08,
2461029.500000000, A.D. 2025-Dec-20 00:00:00.0000, -1.007734881143235E+08, 2.402510948723876E+08, -1.086349772896518E+08,
2461036.500000000, A.D. 2025-Dec-27 00:00:00.0000, -1.130266959581354E+08, 2.347826132257758E+08, -1.077126197214090E+08,
2461043.500000000, A.D. 2026-Jan-03 00:00:00.0000, -1.250351790080403E+08, 2.288058722446086E+08, -1.065570080691386E+08,
2461050.500000000, A.D. 2026-Jan-10 00:00:00.0000, -1.367721204437569E+08, 2.223323172360996E+08, -1.051699486672828E+08,
2461057.500000000, A.D. 2026-Jan-17 00:00:00.0000, -1.482112365727707E+08, 2.153747131461207E+08, -1.035538429898694E+08,
2461064.500000000, A.D. 2026-Jan-24 00:00:00.0000, -1.593268676508763E+08, 2.079471162609306E+08, -1.017116857838470E+08,
2461071.500000000, A.D. 2026-Jan-31 00:00:00.0000, -1.700940671984752E+08, 2.000648394191382E+08, -9.964706042861818E+07,
2461078.500000000, A.D. 2026-Feb-07 00:00:00.0000, -1.804886891023883E+08, 1.917444107927483E+08, -9.736413150516643E+07,
2461085.500000000, A.D. 2026-Feb-14 00:00:00.0000, -1.904874716104462E+08, 1.830035264010607E+08, -9.486763459922734E+07,
2461092.500000000, A.D. 2026-Feb-21 00:00:00.0000, -2.000681172102887E+08, 1.738609971748831E+08, -9.216286335653438E+07,
2461099.500000000, A.D. 2026-Feb-28 00:00:00.0000, -2.092093688859208E+08, 1.643366920261396E+08, -8.925565365988290E+07,
2461106.500000000, A.D. 2026-Mar-07 00:00:00.0000, -2.178910842563869E+08, 1.544514753407404E+08, -8.615236499929042E+07,
2461113.500000000, A.D. 2026-Mar-14 00:00:00.0000, -2.260943042964540E+08, 1.442271369912386E+08, -8.285985960422125E+07,
2461120.500000000, A.D. 2026-Mar-21 00:00:00.0000, -2.338013143756600E+08, 1.336863182324834E+08, -7.938547940093151E+07,
2461127.500000000, A.D. 2026-Mar-28 00:00:00.0000, -2.409956992172502E+08, 1.228524350172757E+08, -7.573702069711967E+07,
2461134.500000000, A.D. 2026-Apr-04 00:00:00.0000, -2.476623920331546E+08, 1.117495983252491E+08, -7.192270681342328E+07,
2461141.500000000, A.D. 2026-Apr-11 00:00:00.0000, -2.537877172709264E+08, 1.004025317295574E+08, -6.795115892080475E+07,
2461148.500000000, A.D. 2026-Apr-18 00:00:00.0000, -2.593594265926348E+08, 8.883648679251599E+07, -6.383136531530668E+07,
2461155.500000000, A.D. 2026-Apr-25 00:00:00.0000, -2.643667278921999E+08, 7.707715691206059E+07, -5.957264936259478E+07,
2461162.500000000, A.D. 2026-May-02 00:00:00.0000, -2.688003072453148E+08, 6.515059019897987E+07, -5.518463635680495E+07,
2461169.500000000, A.D. 2026-May-09 00:00:00.0000, -2.726523436635597E+08, 5.308310192253210E+07, -5.067721955594376E+07,
2461176.500000000, A.D. 2026-May-16 00:00:00.0000, -2.759165163403226E+08, 4.090118725286045E+07, -4.606052566512083E+07,
2461183.500000000, A.D. 2026-May-23 00:00:00.0000, -2.785880044687078E+08, 2.863143589109663E+07, -4.134487993581875E+07,
2461190.500000000, A.D. 2026-May-30 00:00:00.0000, -2.806634819075088E+08, 1.630044944657057E+07, -3.654077090822330E+07,
2461197.500000000, A.D. 2026-Jun-06 00:00:00.0000, -2.821411072770035E+08, 3.934758798013851E+06, -3.165881527323565E+07,
2461204.500000000, A.D. 2026-Jun-13 00:00:00.0000, -2.830205061316133E+08, -8.439257875969343E+06, -2.670972339682146E+07,
2461211.500000000, A.D. 2026-Jun-20 00:00:00.0000, -2.833027460378494E+08, -2.079545302282058E+07, -2.170426541890856E+07,
2461218.500000000, A.D. 2026-Jun-27 00:00:00.0000, -2.829903066010540E+08, -3.310798355792443E+07, -1.665323798105812E+07,
2461225.500000000, A.D. 2026-Jul-04 00:00:00.0000, -2.820870448331322E+08, -4.535138108759660E+07, -1.156743182699121E+07,
2461232.500000000, A.D. 2026-Jul-11 00:00:00.0000, -2.805981560523838E+08, -5.750061838747253E+07, -6.457600485103909E+06,
2461239.500000000, A.D. 2026-Jul-18 00:00:00.0000, -2.785301307056894E+08, -6.953117189039947E+07, -1.334430196197703E+06,
2461246.500000000, A.D. 2026-Jul-25 00:00:00.0000, -2.758907075829384E+08, -8.141907999416217E+07, 3.791488782597303E+06,
2461253.500000000, A.D. 2026-Aug-01 00:00:00.0000, -2.726888238591734E+08, -9.314099709246004E+07, 8.909689388594076E+06,
2461260.500000000, A.D. 2026-Aug-08 00:00:00.0000, -2.689345622175307E+08, -1.046742432715763E+08, 1.400985337787984E+07,
2461267.500000000, A.D. 2026-Aug-15 00:00:00.0000, -2.646390950931391E+08, -1.159968491797312E+08, 1.908183530108879E+07,
2461274.500000000, A.D. 2026-Aug-22 00:00:00.0000, -2.598146272410998E+08, -1.270875948505428E+08, 2.411568495529909E+07,
2461281.500000000, A.D. 2026-Aug-29 00:00:00.0000, -2.544743393451277E+08, -1.379260438981861E+08, 2.910166838033804E+07,
2461288.500000000, A.D. 2026-Sep-05 00:00:00.0000, -2.486323309485263E+08, -1.484925760363922E+08, 3.403028695638954E+07,
2461295.500000000, A.D. 2026-Sep-12 00:00:00.0000, -2.423035606497251E+08, -1.587684155378668E+08, 3.889229458604535E+07,
$$EOE